[{"OBJECT_NAME":"ONEWEB-0184","OBJECT_ID":"2021-031B","EPOCH":"2026-04-16T22:52:47.405280","MEAN_MOTION":13.14502256,"ECCENTRICITY":0.0002286,"INCLINATION":87.8941,"RA_OF_ASC_NODE":301.9165,"ARG_OF_PERICENTER":71.7988,"MEAN_ANOMALY":288.339,"EPHEMERIS_TYPE":0,"CLASSIFICATION_TYPE":"U","NORAD_CAT_ID":48211,"ELEMENT_SET_NO":999,"REV_AT_EPOCH":24024,"BSTAR":-0.00057189,"MEAN_MOTION_DOT":-1.99e-06,"MEAN_MOTION_DDOT":0.0},{"OBJECT_NAME":"ONEWEB-0179","OBJECT_ID":"2021-031C","EPOCH":"2026-04-17T08:00:03.000384","MEAN_MOTION":13.76658459,"ECCENTRICITY":0.0021883,"INCLINATION":87.8924,"RA_OF_ASC_NODE":301.3768,"ARG_OF_PERICENTER":84.4976,"MEAN_ANOMALY":321.4092,"EPHEMERIS_TYPE":0,"CLASSIFICATION_TYPE":"U","NORAD_CAT_ID":48212,"ELEMENT_SET_NO":999,"REV_AT_EPOCH":511,"BSTAR":0.24244,"MEAN_MOTION_DOT":0.00245581,"MEAN_MOTION_DDOT":0.0},{"OBJECT_NAME":"ONEWEB-0180","OBJECT_ID":"2021-031D","EPOCH":"2026-04-16T22:57:19.064160","MEAN_MOTION":13.14524519,"ECCENTRICITY":0.0001894,"INCLINATION":87.8869,"RA_OF_ASC_NODE":301.9155,"ARG_OF_PERICENTER":81.129,"MEAN_ANOMALY":279.0054,"EPHEMERIS_TYPE":0,"CLASSIFICATION_TYPE":"U","NORAD_CAT_ID":48213,"ELEMENT_SET_NO":999,"REV_AT_EPOCH":24017,"BSTAR":0.0082101,"MEAN_MOTION_DOT":3.059e-05,"MEAN_MOTION_DDOT":0.0},{"OBJECT_NAME":"ONEWEB-0218","OBJECT_ID":"2021-031E","EPOCH":"2026-04-17T06:47:46.318272","MEAN_MOTION":13.14502554,"ECCENTRICITY":0.0002125,"INCLINATION":87.8928,"RA_OF_ASC_NODE":301.8495,"ARG_OF_PERICENTER":65.223,"MEAN_ANOMALY":294.9121,"EPHEMERIS_TYPE":0,"CLASSIFICATION_TYPE":"U","NORAD_CAT_ID":48214,"ELEMENT_SET_NO":999,"REV_AT_EPOCH":24037,"BSTAR":0.00024751,"MEAN_MOTION_DOT":1.05e-06,"MEAN_MOTION_DDOT":0.0},{"OBJECT_NAME":"ONEWEB-0209","OBJECT_ID":"2021-031F","EPOCH":"2026-04-17T01:02:57.350112","MEAN_MOTION":13.14501224,"ECCENTRICITY":0.0001541,"INCLINATION":87.8917,"RA_OF_ASC_NODE":301.9209,"ARG_OF_PERICENTER":86.0464,"MEAN_ANOMALY":274.0842,"EPHEMERIS_TYPE":0,"CLASSIFICATION_TYPE":"U","NORAD_CAT_ID":48215,"ELEMENT_SET_NO":999,"REV_AT_EPOCH":24034,"BSTAR":-0.00011724999999999999,"MEAN_MOTION_DOT":-3.1e-07,"MEAN_MOTION_DDOT":0.0},{"OBJECT_NAME":"ONEWEB-0198","OBJECT_ID":"2021-031G","EPOCH":"2026-04-17T02:29:55.528224","MEAN_MOTION":13.1450253,"ECCENTRICITY":0.0001634,"INCLINATION":87.8922,"RA_OF_ASC_NODE":301.9093,"ARG_OF_PERICENTER":73.7846,"MEAN_ANOMALY":286.3464,"EPHEMERIS_TYPE":0,"CLASSIFICATION_TYPE":"U","NORAD_CAT_ID":48216,"ELEMENT_SET_NO":999,"REV_AT_EPOCH":24046,"BSTAR":-0.00041338000000000003,"MEAN_MOTION_DOT":-1.4e-06,"MEAN_MOTION_DDOT":0.0},{"OBJECT_NAME":"ONEWEB-0189","OBJECT_ID":"2021-031H","EPOCH":"2026-04-16T23:08:46.511808","MEAN_MOTION":13.14502354,"ECCENTRICITY":0.0001656,"INCLINATION":87.8932,"RA_OF_ASC_NODE":301.9166,"ARG_OF_PERICENTER":77.8193,"MEAN_ANOMALY":282.3123,"EPHEMERIS_TYPE":0,"CLASSIFICATION_TYPE":"U","NORAD_CAT_ID":48217,"ELEMENT_SET_NO":999,"REV_AT_EPOCH":24018,"BSTAR":-0.00015916,"MEAN_MOTION_DOT":-4.6e-07,"MEAN_MOTION_DDOT":0.0},{"OBJECT_NAME":"ONEWEB-0196","OBJECT_ID":"2021-031J","EPOCH":"2026-04-17T02:16:01.956576","MEAN_MOTION":13.14502884,"ECCENTRICITY":0.0001641,"INCLINATION":87.8931,"RA_OF_ASC_NODE":301.9006,"ARG_OF_PERICENTER":84.4787,"MEAN_ANOMALY":275.653,"EPHEMERIS_TYPE":0,"CLASSIFICATION_TYPE":"U","NORAD_CAT_ID":48218,"ELEMENT_SET_NO":999,"REV_AT_EPOCH":24020,"BSTAR":-0.00037055,"MEAN_MOTION_DOT":-1.25e-06,"MEAN_MOTION_DDOT":0.0},{"OBJECT_NAME":"ONEWEB-0183","OBJECT_ID":"2021-031K","EPOCH":"2026-04-17T01:39:29.368224","MEAN_MOTION":13.14502531,"ECCENTRICITY":0.0001574,"INCLINATION":87.8923,"RA_OF_ASC_NODE":301.905,"ARG_OF_PERICENTER":95.1299,"MEAN_ANOMALY":265.0011,"EPHEMERIS_TYPE":0,"CLASSIFICATION_TYPE":"U","NORAD_CAT_ID":48219,"ELEMENT_SET_NO":999,"REV_AT_EPOCH":24029,"BSTAR":0.0005812699999999999,"MEAN_MOTION_DOT":2.28e-06,"MEAN_MOTION_DDOT":0.0},{"OBJECT_NAME":"ONEWEB-0185","OBJECT_ID":"2021-031L","EPOCH":"2026-04-17T02:17:10.641984","MEAN_MOTION":13.14502647,"ECCENTRICITY":0.0001309,"INCLINATION":87.894,"RA_OF_ASC_NODE":301.8873,"ARG_OF_PERICENTER":91.4049,"MEAN_ANOMALY":268.7231,"EPHEMERIS_TYPE":0,"CLASSIFICATION_TYPE":"U","NORAD_CAT_ID":48220,"ELEMENT_SET_NO":999,"REV_AT_EPOCH":24022,"BSTAR":-0.00063341,"MEAN_MOTION_DOT":-2.22e-06,"MEAN_MOTION_DDOT":0.0},{"OBJECT_NAME":"ONEWEB-0187","OBJECT_ID":"2021-031M","EPOCH":"2026-04-17T01:48:24.647328","MEAN_MOTION":13.14497217,"ECCENTRICITY":0.0001464,"INCLINATION":87.8918,"RA_OF_ASC_NODE":301.9182,"ARG_OF_PERICENTER":84.1467,"MEAN_ANOMALY":275.9829,"EPHEMERIS_TYPE":0,"CLASSIFICATION_TYPE":"U","NORAD_CAT_ID":48221,"ELEMENT_SET_NO":999,"REV_AT_EPOCH":24023,"BSTAR":0.00051327,"MEAN_MOTION_DOT":2.03e-06,"MEAN_MOTION_DDOT":0.0},{"OBJECT_NAME":"ONEWEB-0192","OBJECT_ID":"2021-031N","EPOCH":"2026-04-17T01:05:14.189568","MEAN_MOTION":13.14501742,"ECCENTRICITY":0.000176,"INCLINATION":87.8917,"RA_OF_ASC_NODE":301.9129,"ARG_OF_PERICENTER":86.3671,"MEAN_ANOMALY":273.766,"EPHEMERIS_TYPE":0,"CLASSIFICATION_TYPE":"U","NORAD_CAT_ID":48222,"ELEMENT_SET_NO":999,"REV_AT_EPOCH":24014,"BSTAR":-5.2338e-05,"MEAN_MOTION_DOT":-7e-08,"MEAN_MOTION_DDOT":0.0},{"OBJECT_NAME":"ONEWEB-0219","OBJECT_ID":"2021-031P","EPOCH":"2026-04-17T02:25:09.488928","MEAN_MOTION":13.14502754,"ECCENTRICITY":0.0001437,"INCLINATION":87.8925,"RA_OF_ASC_NODE":301.8908,"ARG_OF_PERICENTER":86.4413,"MEAN_ANOMALY":273.6881,"EPHEMERIS_TYPE":0,"CLASSIFICATION_TYPE":"U","NORAD_CAT_ID":48223,"ELEMENT_SET_NO":999,"REV_AT_EPOCH":24035,"BSTAR":-0.00038457000000000004,"MEAN_MOTION_DOT":-1.3e-06,"MEAN_MOTION_DDOT":0.0},{"OBJECT_NAME":"ONEWEB-0202","OBJECT_ID":"2021-031Q","EPOCH":"2026-04-17T00:08:08.950560","MEAN_MOTION":13.14503596,"ECCENTRICITY":0.0001993,"INCLINATION":87.8934,"RA_OF_ASC_NODE":301.9195,"ARG_OF_PERICENTER":69.8426,"MEAN_ANOMALY":290.2918,"EPHEMERIS_TYPE":0,"CLASSIFICATION_TYPE":"U","NORAD_CAT_ID":48224,"ELEMENT_SET_NO":999,"REV_AT_EPOCH":24032,"BSTAR":0.0001234,"MEAN_MOTION_DOT":5.9e-07,"MEAN_MOTION_DDOT":0.0},{"OBJECT_NAME":"ONEWEB-0204","OBJECT_ID":"2021-031R","EPOCH":"2026-04-16T23:07:38.134848","MEAN_MOTION":13.14503113,"ECCENTRICITY":0.0001508,"INCLINATION":87.893,"RA_OF_ASC_NODE":301.9227,"ARG_OF_PERICENTER":98.408,"MEAN_ANOMALY":261.7221,"EPHEMERIS_TYPE":0,"CLASSIFICATION_TYPE":"U","NORAD_CAT_ID":48225,"ELEMENT_SET_NO":999,"REV_AT_EPOCH":24021,"BSTAR":-0.00024651,"MEAN_MOTION_DOT":-7.9e-07,"MEAN_MOTION_DDOT":0.0},{"OBJECT_NAME":"ONEWEB-0205","OBJECT_ID":"2021-031S","EPOCH":"2026-04-17T02:11:27.462048","MEAN_MOTION":13.14502079,"ECCENTRICITY":0.0001535,"INCLINATION":87.8931,"RA_OF_ASC_NODE":301.888,"ARG_OF_PERICENTER":87.183,"MEAN_ANOMALY":272.9475,"EPHEMERIS_TYPE":0,"CLASSIFICATION_TYPE":"U","NORAD_CAT_ID":48226,"ELEMENT_SET_NO":999,"REV_AT_EPOCH":24024,"BSTAR":-0.00034964,"MEAN_MOTION_DOT":-1.17e-06,"MEAN_MOTION_DDOT":0.0}]