ONEWEB-0184             
1 48211U 21031B   26106.95332645 -.00000199  00000+0 -57189-3 0  9998
2 48211  87.8941 301.9165 0002286  71.7988 288.3390 13.14502256240242
ONEWEB-0179             
1 48212U 21031C   26107.33336806  .00245581  00000+0  24244+0 0  9991
2 48212  87.8924 301.3768 0021883  84.4976 321.4092 13.76658459  5117
ONEWEB-0180             
1 48213U 21031D   26106.95647065  .00003059  00000+0  82101-2 0  9992
2 48213  87.8869 301.9155 0001894  81.1290 279.0054 13.14524519240179
ONEWEB-0218             
1 48214U 21031E   26107.28317498  .00000105  00000+0  24751-3 0  9991
2 48214  87.8928 301.8495 0002125  65.2230 294.9121 13.14502554240375
ONEWEB-0209             
1 48215U 21031F   26107.04371933 -.00000031  00000+0 -11725-3 0  9997
2 48215  87.8917 301.9209 0001541  86.0464 274.0842 13.14501224240348
ONEWEB-0198             
1 48216U 21031G   26107.10411491 -.00000140  00000+0 -41338-3 0  9993
2 48216  87.8922 301.9093 0001634  73.7846 286.3464 13.14502530240466
ONEWEB-0189             
1 48217U 21031H   26106.96442722 -.00000046  00000+0 -15916-3 0  9996
2 48217  87.8932 301.9166 0001656  77.8193 282.3123 13.14502354240184
ONEWEB-0196             
1 48218U 21031J   26107.09446709 -.00000125  00000+0 -37055-3 0  9997
2 48218  87.8931 301.9006 0001641  84.4787 275.6530 13.14502884240202
ONEWEB-0183             
1 48219U 21031K   26107.06908991  .00000228  00000+0  58127-3 0  9996
2 48219  87.8923 301.9050 0001574  95.1299 265.0011 13.14502531240290
ONEWEB-0185             
1 48220U 21031L   26107.09526206 -.00000222  00000+0 -63341-3 0  9996
2 48220  87.8940 301.8873 0001309  91.4049 268.7231 13.14502647240226
ONEWEB-0187             
1 48221U 21031M   26107.07528527  .00000203  00000+0  51327-3 0  9991
2 48221  87.8918 301.9182 0001464  84.1467 275.9829 13.14497217240231
ONEWEB-0192             
1 48222U 21031N   26107.04530312 -.00000007  00000+0 -52338-4 0  9992
2 48222  87.8917 301.9129 0001760  86.3671 273.7660 13.14501742240140
ONEWEB-0219             
1 48223U 21031P   26107.10080427 -.00000130  00000+0 -38457-3 0  9999
2 48223  87.8925 301.8908 0001437  86.4413 273.6881 13.14502754240351
ONEWEB-0202             
1 48224U 21031Q   26107.00565915  .00000059  00000+0  12340-3 0  9990
2 48224  87.8934 301.9195 0001993  69.8426 290.2918 13.14503596240325
ONEWEB-0204             
1 48225U 21031R   26106.96363582 -.00000079  00000+0 -24651-3 0  9993
2 48225  87.8930 301.9227 0001508  98.4080 261.7221 13.14503113240217
ONEWEB-0205             
1 48226U 21031S   26107.09129007 -.00000117  00000+0 -34964-3 0  9992
2 48226  87.8931 301.8880 0001535  87.1830 272.9475 13.14502079240249
